POLYITAN-1              
1 40042U 14033AJ  26193.56228347  .00012606  00000+0  38349-3 0  9993
2 40042  98.0940 222.2395 0008123  71.5850 288.6273 15.34156417657480
TIGRISAT                
1 40043U 14033AK  26193.85186341  .00000861  00000+0  10472-3 0  9990
2 40043  97.7860 343.2807 0048817 352.0846   7.9593 14.85245810649430
AEROCUBE 6A             
1 40045U 14033AM  26193.93699915  .00003342  00000+0  28196-3 0  9996
2 40045  97.7235   0.6171 0036513 288.7707  70.9555 14.98329984650470
AEROCUBE 6B             
1 40046U 14033AN  26194.24785200  .00002684  00000+0  21881-3 0  9997
2 40046  97.7196   0.7692 0038009 276.9619  82.7281 14.99787852650660
CANX-4                  
1 40055U 14034C   26194.09089748  .00000466  00000+0  67045-4 0  9994
2 40055  98.3087  70.3511 0011470 290.4106  69.5873 14.81309217648364
CANX-5                  
1 40056U 14034D   26194.08902816  .00000469  00000+0  67442-4 0  9998
2 40056  98.3089  70.3942 0011468 290.6384  69.3597 14.81326588639172
UKUBE-1                 
1 40074U 14037F   26193.94808555  .00005108  00000+0  28623-3 0  9992
2 40074  98.4241 199.9344 0003323  92.8108 267.3501 15.13931181652452
BRITE-PL2 (HEWELIUSZ)   
1 40119U 14049B   26194.01388840  .00000806  00000+0  79660-4 0  9992
2 40119  97.9119 306.2169 0014541  29.3912 330.8123 14.94683999645301
AEROCUBE 5C             
1 40965U 15058B   26192.97951737  .00001921  00000+0  17688-3 0  9996
2 40965  64.7651 185.4549 0132116  53.6557 307.6664 14.91564017369352
AEROCUBE 7              
1 40966U 15058C   26194.30856091  .00003017  00000+0  24558-3 0  9995
2 40966  64.7607 162.9861 0121900  51.4720 309.7246 14.95903007369863
FOX-1A (AO-85)          
1 40967U 15058D   26194.30948310  .00001693  00000+0  15967-3 0  9994
2 40967  64.7723 197.7955 0132199  46.5234 314.6780 14.91081487117460
SINOD-D 1               
1 40968U 15058E   26193.41441949  .00002893  00000+0  23568-3 0  9991
2 40968  64.7730 179.9000 0120812  43.2193 317.8323 14.96071501120439
SNAP-3 ALICE            
1 40970U 15058G   26194.20762299  .00095871  00000+0  87975-3 0  9996
2 40970  64.7493  13.5320 0024376 349.7617  10.3032 15.66833547120952
LMRST-SAT               
1 40971U 15058H   26194.00315010  .00001623  00000+0  15470-3 0  9993
2 40971  64.7731 195.1350 0133731  48.6461 312.6062 14.90695751117402
SNAP-3 EDDIE            
1 40972U 15058J   26194.17692726  .00104018  00000+0  90118-3 0  9998
2 40972  64.7400   4.1660 0025285 352.3377   7.7382 15.68182494123094
PROPCUBE 3              
1 40973U 15058K   26193.90814973  .00002519  00000+0  21405-3 0  9995
2 40973  64.7666 172.1639 0125572  49.8739 311.3296 14.94405175118646
BISONSAT                
1 40974U 15058L   26194.14694245  .00008837  00000+0  41901-3 0  9993
2 40974  64.7589  89.6667 0081857  36.7421 323.9275 15.16897055119558
SNAP-3 JIMI             
1 40975U 15058M   26194.28180832  .00004425  00000+0  30462-3 0  9990
2 40975  64.7643 137.1920 0107717  45.0565 315.9226 15.02592193118148
PROPCUBE 1 (FLORA)      
1 40976U 15058N   26194.31754021  .00001255  00000+0  12805-3 0  9991
2 40976  64.7718 214.2440 0132335  50.8095 310.4681 14.89322265120156
SINOD-D 3               
1 40977U 15058P   26194.01087400  .00002408  00000+0  20885-3 0  9997
2 40977  64.7700 195.1694 0120883  47.9878 313.1451 14.94163669118617
RAVAN                   
1 41849U 16067B   26194.15344167  .00038477  00000+0  52677-3 0  9997
2 41849  97.9849  86.7743 0001985 235.0809 125.0258 15.57315898531733
CELTEE 1                
1 41850U 16067C   26194.08189664  .00003097  00000+0  14772-3 0  9994
2 41850  98.0642  62.4153 0002271 112.8115 247.3358 15.19929338529818
OPTICUBE 04             
1 41851U 16067D   26193.53031186  .00001344  00000+0  87500-4 0  9992
2 41851  98.0676  47.1347 0016361  36.5014 323.7325 15.09765361528990
AEROCUBE 8D             
1 41852U 16067E   26193.88387865  .00004883  00000+0  20043-3 0  9998
2 41852  98.0651  66.0118 0004706  62.5706 297.6008 15.24750647529982
AEROCUBE 8C             
1 41853U 16067F   26193.57653986  .00004607  00000+0  18790-3 0  9995
2 41853  98.0525  62.8765 0004548 351.7275   8.3885 15.25001010529932
CORVUS BC2              
1 42846U 17042X   26194.30040792  .00001443  00000+0  10169-3 0  9996
2 42846  97.4089 354.6408 0013664  29.9717 330.2290 15.06452371490992
CORVUS BC1              
1 42847U 17042Y   26193.42873223  .00001151  00000+0  81623-4 0  9992
2 42847  97.4116 354.6330 0011892  10.4044 349.7427 15.06612257490894
MAKERSAT 0              
1 43016U 17073D   26193.90601466  .00014826  00000+0  39200-3 0  9992
2 43016  97.4593  76.6362 0105335 180.4050 179.7125 15.32952290470403
SIRION PATHFINDER-2     
1 43759U 18099B   26193.94648822  .00002956  00000+0  16276-3 0  9995
2 43759  97.4243 242.3930 0008238 199.6407 160.4509 15.14767949416525
CORVUS BC4              
1 43767U 18099K   26193.98816819  .00002719  00000+0  15895-3 0  9994
2 43767  97.4056 236.2140 0006498 270.3916  89.6570 15.12692886416300
